SES-21                  
1 53961U 22123B   26162.52591726  .00000086  00000+0  00000+0 0  9990
2 53961   0.0262  32.5421 0000921  47.6721 237.9742  1.00269986  7150
GALAXY 33 (G-33)        
1 54026U 22128A   26162.52557058  .00000096  00000+0  00000+0 0  9999
2 54026   0.0076 328.1103 0001733 119.2782 228.7054  1.00271888 13685
GALAXY 34 (G-34)        
1 54027U 22128B   26162.66890682  .00000000  00000+0  00000+0 0  9993
2 54027   0.0219 345.5528 0001576 108.0855 278.1799  1.00273054 13852
ANGOSAT 2               
1 54033U 22131A   26161.55837796  .00000153  00000+0  00000+0 0  9997
2 54033   0.0349  88.7475 0001266  27.5902   6.5973  1.00272183 13415
EUTELSAT HOTBIRD 13F    
1 54048U 22134A   26162.69707360  .00000104  00000+0  00000+0 0  9991
2 54048   0.0454 293.3112 0001982  62.7785 167.9018  1.00271003 13327
LDPE-2                  
1 54219U 22144A   26162.62485858  .00000144  00000+0  00000+0 0  9994
2 54219   5.5990  63.6947 0001834 103.0246 155.5139  1.00529787 11783
EUTELSAT HOTBIRD 13G    
1 54225U 22146A   26162.69707360  .00000104  00000+0  00000+0 0  9991
2 54225   0.0468 229.2799 0002017 315.6387 339.0678  1.00271465  7415
ZHONGXING-19            
1 54230U 22148A   26162.65547343 -.00000065  00000+0  00000+0 0  9995
2 54230   0.0141 301.6966 0002280 165.5607 191.9035  1.00271327 13325
GALAXY 31 (G-31)        
1 54243U 22153A   26162.67046683  .00000030  00000+0  00000+0 0  9999
2 54243   0.0180 295.7377 0001130 136.8388 307.8081  1.00270115  7079
GALAXY 32 (G-32)        
1 54244U 22153B   26162.53389064 -.00000158  00000+0  00000+0 0  9990
2 54244   0.0099   2.4088 0002088  31.9937 326.6811  1.00271889 13086
EUTELSAT 10B            
1 54259U 22157A   26162.69646692  .00000086  00000+0  00000+0 0  9999
2 54259   0.0628 104.1683 0001104 351.0436  65.5811  1.00278962 12974
GALAXY 35 (G-35)        
1 54741U 22170A   26162.60470727 -.00000145  00000+0  00000+0 0  9992
2 54741   0.0155 296.8943 0001889 146.7176 300.9339  1.00270834 12839
GALAXY 36 (G-36)        
1 54742U 22170B   26162.60557396 -.00000169  00000+0  00000+0 0  9997
2 54742   0.0360 125.6767 0002574 316.8090 306.4760  1.00271833 12714
METEOSAT-12 (MTG-I1)    
1 54743U 22170C   26162.69438692  .00000008  00000+0  00000+0 0  9995
2 54743   0.7318  21.9787 0003235  72.0387  55.5733  1.00271721 12921
SHIJIAN-23 (SJ-23)      
1 55131U 23002A   26162.68303639 -.00000206  00000+0  00000+0 0  9994
2 55131   3.7026  78.3803 0003806 272.7782 306.5032  1.00088953 12451
APSTAR-6E               
1 55239U 23005A   26161.66423256 -.00000300  00000+0  00000+0 0  9996
2 55239   0.0249 253.3859 0001043 305.6629  73.1073  1.00270607 18626
USA 342                 
1 55263U 23008A   26161.27337965  .00000000  00000+0  00000+0 0  9990
2 55263   0.0036  23.3608 0000235 273.9776  83.6406  1.00272706 12448
LDPE-3A                 
1 55264U 23008B   26162.53484397 -.00000037  00000+0  00000+0 0  9994
2 55264   2.3322  81.7311 0001113  60.8476 223.7376  0.99145364 11759
ELEKTRO-L 4             
1 55506U 23016A   26161.81950044 -.00000040  00000+0  00000+0 0  9993
2 55506   0.0721 174.0756 0000822   1.1447 184.7922  1.00272872 12276
AMAZONAS NEXUS          
1 55508U 23017A   26162.53978398 -.00000266  00000+0  00000+0 0  9998
2 55508   0.0377  34.4009 0005034  30.2444 328.5655  1.00266544  6986
ZHONGXING-26            
1 55686U 23023A   26162.71920983 -.00000337  00000+0  00000+0 0  9998
2 55686   0.0690  71.6261 0003333  13.5173 198.9167  1.00273152 12175
LUCH-5X (OLYMP-K 2)     
1 55841U 23031A   26162.50530897  .00000050  00000+0  00000+0 0  9999
2 55841   0.0284  60.7738 0000733 170.3710 272.5925  1.00272154 11884
GAOFEN-13 02            
1 55912U 23036A   26162.58103185 -.00000202  00000+0  00000+0 0  9997
2 55912   1.0195   0.3708 0004164 337.4905 279.5370  1.00271834 12039
SES-18                  
1 55970U 23038A   26162.60280060 -.00000084  00000+0  00000+0 0  9992
2 55970   0.0254 286.0135 0000203  24.3236  63.5229  1.00271173 12045
SES-19                  
1 55971U 23038B   26162.66778014  .00000104  00000+0  00000+0 0  9992
2 55971   0.0131 322.3574 0001537 122.9650 280.1961  1.00272368 12033
INTELSAT 40E (IS-40E)   
1 56174U 23052A   26162.53389064  .00000000  00000+0  00000+0 0  9998
2 56174   0.0184  11.4493 0002005 112.2014 237.4225  1.00272650 11761
VIASAT-3 F1             
1 56370U 23060A   26162.60557396  .00000000  00000+0  00000+0 0  9998
2 56370   0.0241 328.9825 0001051 116.9734 303.0262  1.00276196 11375
ARCTURUS                
1 56371U 23060B   26162.70880977 -.00000047  00000+0  00000+0 0  9996
2 56371   2.7621  80.0143 0002374  44.8855 102.8016  1.00272198 11402
GS-1                    
1 56372U 23060C   26159.64661679 -.00000208  00000+0  00000+0 0  9991
2 56372   2.7050  79.9310 0004125 279.9950 219.1575  1.00277054  7453
BEIDOU-3 G4             
1 56564U 23066A   26161.36764115 -.00000265  00000+0  00000+0 0  9994
2 56564   0.4953 329.6081 0004397 171.1303  30.2733  1.00265779 11329
ARABSAT-7B (BADR-8)     
1 56757U 23075A   26162.55701273  .00000161  00000+0  00000+0 0  9990
2 56757   0.0752  27.3353 0004683 354.7630 104.3415  1.00270990 11062
NVS-01 (IRNSS-1J)       
1 56759U 23076A   26162.72016316 -.00000317  00000+0  00000+0 0  9993
2 56759   2.1798 244.6072 0003114  38.0522   6.2142  1.00267511 11061
